[{"OBJECT_NAME":"FUNCUBE-1 (AO-73)","OBJECT_ID":"2013-066AE","EPOCH":"2026-03-09T21:45:20.354112","MEAN_MOTION":15.07917828,"ECCENTRICITY":0.00373117,"INCLINATION":97.8195,"RA_OF_ASC_NODE":38.4486,"ARG_OF_PERICENTER":178.1154,"MEAN_ANOMALY":182.0221,"EPHEMERIS_TYPE":0,"CLASSIFICATION_TYPE":"U","NORAD_CAT_ID":39444,"ELEMENT_SET_NO":999,"REV_AT_EPOCH":66469,"BSTAR":0.00061714882,"MEAN_MOTION_DOT":9.564e-5,"MEAN_MOTION_DDOT":0},{"OBJECT_NAME":"STARLINK-5654","OBJECT_ID":"2023-013AM","EPOCH":"2026-03-09T22:00:01.999584","MEAN_MOTION":15.11289657,"ECCENTRICITY":0.00012041,"INCLINATION":42.9998,"RA_OF_ASC_NODE":285.8425,"ARG_OF_PERICENTER":309.6832,"MEAN_ANOMALY":152.3677,"EPHEMERIS_TYPE":0,"CLASSIFICATION_TYPE":"U","NORAD_CAT_ID":55366,"ELEMENT_SET_NO":999,"REV_AT_EPOCH":567,"BSTAR":0.0043604859,"MEAN_MOTION_DOT":0.00075271,"MEAN_MOTION_DDOT":0}]
